{"type": "FeatureCollection", "features": [ {"type": "Feature", "properties": {"norad_id": 45526, "name": "FENGYUN 1C DEB", "group": "fengyun-1c-debris", "lat": 34.516054318304825, "lon": 65.76980612630757, "alt_km": 837.0037389270137, "timestamp": "2025-12-25T16:53:14.954101+00:00", "meta": {"OBJECT_NAME": "FENGYUN 1C DEB", "OBJECT_ID": "1999-025EYR", "EPOCH": "2025-12-24T03:40:31.181088", "MEAN_MOTION": 14.26028974, "ECCENTRICITY": 0.00548774, "INCLINATION": 98.7621, "RA_OF_ASC_NODE": 70.308, "ARG_OF_PERICENTER": 190.2359, "MEAN_ANOMALY": 169.7707, "EPHEMERIS_TYPE": 0, "CLASSIFICATION_TYPE": "U", "NORAD_CAT_ID": 45526, "ELEMENT_SET_NO": 999, "REV_AT_EPOCH": 43539, "BSTAR": 0.001800182, "MEAN_MOTION_DOT": 4.324e-05, "MEAN_MOTION_DDOT": 0}, "tle": {"line1": "1 45526U 99025EYR 25358.15313867  .00004324  00000+0  18002-2 0  9999", "line2": "2 45526  98.7621  70.3080 0054877 190.2359 169.7707 14.26028974435399"}}, "geometry": {"type": "Point", "coordinates": [65.76980612630757, 34.516054318304825]}}, {"type": "Feature", "properties": {"norad_id": 45527, "name": "FENGYUN 1C DEB", "group": "fengyun-1c-debris", "lat": -24.758949913505298, "lon": 70.32752777671791, "alt_km": 848.6415817748684, "timestamp": "2025-12-25T16:53:14.954111+00:00", "meta": {"OBJECT_NAME": "FENGYUN 1C DEB", "OBJECT_ID": "1999-025EYS", "EPOCH": "2025-12-25T03:31:15.128832", "MEAN_MOTION": 14.24589988, "ECCENTRICITY": 0.00558127, "INCLINATION": 98.7392, "RA_OF_ASC_NODE": 65.7054, "ARG_OF_PERICENTER": 190.4701, "MEAN_ANOMALY": 169.532, "EPHEMERIS_TYPE": 0, "CLASSIFICATION_TYPE": "U", "NORAD_CAT_ID": 45527, "ELEMENT_SET_NO": 999, "REV_AT_EPOCH": 39756, "BSTAR": 0.0016046124, "MEAN_MOTION_DOT": 3.744e-05, "MEAN_MOTION_DDOT": 0}, "tle": {"line1": "1 45527U 99025EYS 25359.14670288  .00003744  00000+0  16046-2 0  9994", "line2": "2 45527  98.7392  65.7054 0055812 190.4701 169.5320 14.24589988397567"}}, "geometry": {"type": "Point", "coordinates": [70.32752777671791, -24.758949913505298]}}, {"type": "Feature", "properties": {"norad_id": 46440, "name": "FENGYUN 1C DEB", "group": "fengyun-1c-debris", "lat": 44.29947573310283, "lon": -145.18093307526792, "alt_km": 718.2546933378471, "timestamp": "2025-12-25T16:53:14.954122+00:00", "meta": {"OBJECT_NAME": "FENGYUN 1C DEB", "OBJECT_ID": "1999-025EYV", "EPOCH": "2025-12-20T20:25:34.567392", "MEAN_MOTION": 14.2032994, "ECCENTRICITY": 0.01764773, "INCLINATION": 98.5919, "RA_OF_ASC_NODE": 21.6185, "ARG_OF_PERICENTER": 111.8963, "MEAN_ANOMALY": 63.8759, "EPHEMERIS_TYPE": 0, "CLASSIFICATION_TYPE": "U", "NORAD_CAT_ID": 46440, "ELEMENT_SET_NO": 999, "REV_AT_EPOCH": 62484, "BSTAR": 0.00020023593, "MEAN_MOTION_DOT": 4.59e-06, "MEAN_MOTION_DDOT": 0}, "tle": {"line1": "1 46440U 99025EYV 25354.85109453  .00000459  00000+0  20024-3 0  9995", "line2": "2 46440  98.5919  21.6185 0176477 111.8963  63.8759 14.20329940624841"}}, "geometry": {"type": "Point", "coordinates": [-145.18093307526792, 44.29947573310283]}}, {"type": "Feature", "properties": {"norad_id": 46443, "name": "FENGYUN 1C DEB", "group": "fengyun-1c-debris", "lat": -67.52779571834697, "lon": -136.1866126802136, "alt_km": 838.6243569054805, "timestamp": "2025-12-25T16:53:14.954132+00:00", "meta": {"OBJECT_NAME": "FENGYUN 1C DEB", "OBJECT_ID": "1999-025EYY", "EPOCH": "2025-12-24T09:21:30.254400", "MEAN_MOTION": 14.10907038, "ECCENTRICITY": 0.00968142, "INCLINATION": 99.2138, "RA_OF_ASC_NODE": 65.5704, "ARG_OF_PERICENTER": 322.8051, "MEAN_ANOMALY": 98.5654, "EPHEMERIS_TYPE": 0, "CLASSIFICATION_TYPE": "U", "NORAD_CAT_ID": 46443, "ELEMENT_SET_NO": 999, "REV_AT_EPOCH": 59760, "BSTAR": 0.0016906012, "MEAN_MOTION_DOT": 3.122e-05, "MEAN_MOTION_DDOT": 0}, "tle": {"line1": "1 46443U 99025EYY 25358.38993350  .00003122  00000+0  16906-2 0  9990", "line2": "2 46443  99.2138  65.5704 0096814 322.8051  98.5654 14.10907038597608"}}, "geometry": {"type": "Point", "coordinates": [-136.1866126802136, -67.52779571834697]}}, {"type": "Feature", "properties": {"norad_id": 46444, "name": "FENGYUN 1C DEB", "group": "fengyun-1c-debris", "lat": -30.521082187896713, "lon": 6.420114241174996, "alt_km": 855.9628305348315, "timestamp": "2025-12-25T16:53:14.954142+00:00", "meta": {"OBJECT_NAME": "FENGYUN 1C DEB", "OBJECT_ID": "1999-025EYZ", "EPOCH": "2025-12-18T06:45:06.153408", "MEAN_MOTION": 14.27169033, "ECCENTRICITY": 0.00846398, "INCLINATION": 98.5129, "RA_OF_ASC_NODE": 354.1289, "ARG_OF_PERICENTER": 134.7606, "MEAN_ANOMALY": 242.101, "EPHEMERIS_TYPE": 0, "CLASSIFICATION_TYPE": "U", "NORAD_CAT_ID": 46444, "ELEMENT_SET_NO": 999, "REV_AT_EPOCH": 62661, "BSTAR": 0.00039999748, "MEAN_MOTION_DOT": 9.72e-06, "MEAN_MOTION_DDOT": 0}, "tle": {"line1": "1 46444U 99025EYZ 25352.28132122  .00000972  00000+0  40000-3 0  9999", "line2": "2 46444  98.5129 354.1289 0084639 134.7606 242.1010 14.27169033626614"}}, "geometry": {"type": "Point", "coordinates": [6.420114241174996, -30.521082187896713]}}, {"type": "Feature", "properties": {"norad_id": 46449, "name": "FENGYUN 1C DEB", "group": "fengyun-1c-debris", "lat": 72.49409713265042, "lon": -117.37526772571127, "alt_km": 910.487209420633, "timestamp": "2025-12-25T16:53:14.954152+00:00", "meta": {"OBJECT_NAME": "FENGYUN 1C DEB", "OBJECT_ID": "1999-025EZE", "EPOCH": "2025-11-27T19:57:02.428704", "MEAN_MOTION": 14.19021773, "ECCENTRICITY": 0.02029501, "INCLINATION": 98.6463, "RA_OF_ASC_NODE": 6.5721, "ARG_OF_PERICENTER": 314.0231, "MEAN_ANOMALY": 44.4375, "EPHEMERIS_TYPE": 0, "CLASSIFICATION_TYPE": "U", "NORAD_CAT_ID": 46449, "ELEMENT_SET_NO": 999, "REV_AT_EPOCH": 57425, "BSTAR": 0.00050383916, "MEAN_MOTION_DOT": 1.244e-05, "MEAN_MOTION_DDOT": 0}, "tle": {"line1": "1 46449U 99025EZE 25331.83127811  .00001244  00000+0  50384-3 0  9990", "line2": "2 46449  98.6463   6.5721 0202950 314.0231  44.4375 14.19021773574253"}}, "geometry": {"type": "Point", "coordinates": [-117.37526772571127, 72.49409713265042]}}, {"type": "Feature", "properties": {"norad_id": 46450, "name": "FENGYUN 1C DEB", "group": "fengyun-1c-debris", "lat": -80.11923733710063, "lon": -19.716462657192892, "alt_km": 952.6920465827761, "timestamp": "2025-12-25T16:53:14.954163+00:00", "meta": {"OBJECT_NAME": "FENGYUN 1C DEB", "OBJECT_ID": "1999-025EZF", "EPOCH": "2025-12-22T20:54:28.404576", "MEAN_MOTION": 14.0364475, "ECCENTRICITY": 0.018354, "INCLINATION": 98.08, "RA_OF_ASC_NODE": 212.4054, "ARG_OF_PERICENTER": 32.107, "MEAN_ANOMALY": 329.1123, "EPHEMERIS_TYPE": 0, "CLASSIFICATION_TYPE": "U", "NORAD_CAT_ID": 46450, "ELEMENT_SET_NO": 999, "REV_AT_EPOCH": 61261, "BSTAR": 0.0021946, "MEAN_MOTION_DOT": 3.968e-05, "MEAN_MOTION_DDOT": 0}, "tle": {"line1": "1 46450U 99025EZF 25356.87116209  .00003968  00000+0  21946-2 0  9998", "line2": "2 46450  98.0800 212.4054 0183540  32.1070 329.1123 14.03644750612619"}}, "geometry": {"type": "Point", "coordinates": [-19.716462657192892, -80.11923733710063]}}, {"type": "Feature", "properties": {"norad_id": 46451, "name": "FENGYUN 1C DEB", "group": "fengyun-1c-debris", "lat": -57.457846975624484, "lon": 30.89156823062513, "alt_km": 940.6129913975637, "timestamp": "2025-12-25T16:53:14.954173+00:00", "meta": {"OBJECT_NAME": "FENGYUN 1C DEB", "OBJECT_ID": "1999-025EZG", "EPOCH": "2025-12-25T00:24:40.589280", "MEAN_MOTION": 14.2051902, "ECCENTRICITY": 0.01711251, "INCLINATION": 98.1525, "RA_OF_ASC_NODE": 17.276, "ARG_OF_PERICENTER": 150.099, "MEAN_ANOMALY": 241.9836, "EPHEMERIS_TYPE": 0, "CLASSIFICATION_TYPE": "U", "NORAD_CAT_ID": 46451, "ELEMENT_SET_NO": 999, "REV_AT_EPOCH": 57181, "BSTAR": 0.0023483511, "MEAN_MOTION_DOT": 5.811e-05, "MEAN_MOTION_DDOT": 0}, "tle": {"line1": "1 46451U 99025EZG 25359.01713645  .00005811  00000+0  23484-2 0  9993", "line2": "2 46451  98.1525  17.2760 0171125 150.0990 241.9836 14.20519020571815"}}, "geometry": {"type": "Point", "coordinates": [30.89156823062513, -57.457846975624484]}}, {"type": "Feature", "properties": {"norad_id": 46468, "name": "FENGYUN 1C DEB", "group": "fengyun-1c-debris", "lat": 21.726621764091412, "lon": 84.0614791935041, "alt_km": 841.940951336861, "timestamp": "2025-12-25T16:53:14.954183+00:00", "meta": {"OBJECT_NAME": "FENGYUN 1C DEB", "OBJECT_ID": "1999-025EZK", "EPOCH": "2025-12-22T17:02:48.613632", "MEAN_MOTION": 14.2480408, "ECCENTRICITY": 0.00465889, "INCLINATION": 98.8843, "RA_OF_ASC_NODE": 84.6069, "ARG_OF_PERICENTER": 202.7167, "MEAN_ANOMALY": 314.1415, "EPHEMERIS_TYPE": 0, "CLASSIFICATION_TYPE": "U", "NORAD_CAT_ID": 46468, "ELEMENT_SET_NO": 999, "REV_AT_EPOCH": 73958, "BSTAR": 0.0018930281, "MEAN_MOTION_DOT": 4.421e-05, "MEAN_MOTION_DDOT": 0}, "tle": {"line1": "1 46468U 99025EZK 25356.71028488  .00004421  00000+0  18930-2 0  9995", "line2": "2 46468  98.8843  84.6069 0046588 202.7167 314.1415 14.24804080739581"}}, "geometry": {"type": "Point", "coordinates": [84.0614791935041, 21.726621764091412]}}, {"type": "Feature", "properties": {"norad_id": 46986, "name": "FENGYUN 1C DEB", "group": "fengyun-1c-debris", "lat": 15.039101117247037, "lon": -154.66161256545573, "alt_km": 661.3823222717692, "timestamp": "2025-12-25T16:53:14.954194+00:00", "meta": {"OBJECT_NAME": "FENGYUN 1C DEB", "OBJECT_ID": "1999-025EZL", "EPOCH": "2025-12-23T19:19:36.010560", "MEAN_MOTION": 14.47217412, "ECCENTRICITY": 0.01051734, "INCLINATION": 98.2364, "RA_OF_ASC_NODE": 21.2604, "ARG_OF_PERICENTER": 178.1247, "MEAN_ANOMALY": 182.0361, "EPHEMERIS_TYPE": 0, "CLASSIFICATION_TYPE": "U", "NORAD_CAT_ID": 46986, "ELEMENT_SET_NO": 999, "REV_AT_EPOCH": 63560, "BSTAR": 0.00037494838, "MEAN_MOTION_DOT": 1.421e-05, "MEAN_MOTION_DDOT": 0}, "tle": {"line1": "1 46986U 99025EZL 25357.80527790  .00001421  00000+0  37495-3 0  9996", "line2": "2 46986  98.2364  21.2604 0105173 178.1247 182.0361 14.47217412635603"}}, "geometry": {"type": "Point", "coordinates": [-154.66161256545573, 15.039101117247037]}}]}